NUSAT-1 (FRESCO)        
1 41557U 16033B   22327.86595324  .00017614  00000+0  44837-3 0  9990
2 41557  97.3900  66.3120 0010381 161.0481 347.6327 15.39585578361866
BEESAT-4                
1 41619U 16040W   22327.87240367  .00014987  00000+0  42265-3 0  9995
2 41619  97.1958  14.5526 0006387 262.2160  97.8360 15.36480624345158
CAS-2T & KS-1Q          
1 41847U 16066G   22327.74360823  .00000613  00000+0  10008-3 0  9993
2 41847  98.5328  32.1176 0363714  93.2429 271.0429 14.38916277317255
NAYIF-1 (EO-88)         
1 42017U 17008BX  22327.13298624  .00018491  00000+0  44808-3 0  9990
2 42017  97.2502  31.3670 0004878  49.9985 310.1690 15.41115096321450
ZHUHAI-1 02 (CAS-4B)    
1 42759U 17034B   22327.94062383  .00003331  00000+0  19611-3 0  9993
2 42759  43.0159 172.8402 0010718 224.9350 269.7337 15.13306223300508
ZHUHAI-1 01 (CAS-4A)    
1 42761U 17034D   22327.83159731  .00003609  00000+0  21084-3 0  9993
2 42761  43.0163 172.1124 0010908 226.8338 248.0021 15.13397628300495
MAX VALIER SAT          
1 42778U 17036P   22327.82450400  .00008037  00000+0  27836-3 0  9990
2 42778  97.1860   3.5603 0011732 114.6878 245.5586 15.30039821301244
RADFXSAT (FOX-1B)       
1 43017U 17073E   22327.65157565  .00004164  00000+0  30843-3 0  9994
2 43017  97.6542 215.2642 0245291  26.3042 335.0388 14.82656126270697
FOX-1D (AO-92)          
1 43137U 18004AC  22327.71214338  .00009928  00000+0  31266-3 0  9994
2 43137  97.3551  41.6481 0007915 147.4269 212.7463 15.33090337270715
DIWATA-2B               
1 43678U 18084H   22327.76412282  .00001235  00000+0  12601-3 0  9990
2 43678  97.9922 103.1497 0010960 115.8099 244.4232 14.92504757221619
ES'HAIL 2               
1 43700U 18090A   22327.83591080  .00000166  00000+0  00000+0 0  9993
2 43700   0.0150 340.6225 0001050 284.8184 124.0443  1.00271338 14621
FOX-1CLIFF (AO-95)      
1 43770U 18099N   22327.69484612  .00001780  00000+0  15803-3 0  9999
2 43770  97.6028  29.8304 0014968 100.7860 259.5048 14.97314827216830
ITASAT 1                
1 43786U 18099AE  22327.74475565  .00001761  00000+0  15624-3 0  9999
2 43786  97.6072  30.8751 0016380  93.4139 266.8957 14.97350285216884
JY1SAT (JO-97)          
1 43803U 18099AX  22327.70102645  .00002152  00000+0  18659-3 0  9997
2 43803  97.6017  30.6506 0015229  92.7375 267.5591 14.98038484216904
UWE-4                   
1 43880U 18111E   22327.71674691  .00002005  00000+0  16928-3 0  9997
2 43880  97.6573 231.2247 0011277 139.3296 220.8771 14.99198404213556
NEXUS (FO-99)           
1 43937U 19003F   22327.87074101  .00012016  00000+0  35122-3 0  9998
2 43937  97.1142 355.3075 0016602 306.6339  53.3378 15.35287745214390
PSAT2 (NO-104)          
1 44354U 19036R   22327.84028138  .00088182 -45510-5  45906-3 0  9994
2 44354  28.5184 136.7714 0151114 355.4610   4.4625 15.64526885189432
JAISAT-1                
1 44419U 19038F   22327.89856358  .00007774  00000+0  35892-3 0  9995
2 44419  97.6551 299.7702 0016052 305.4082  54.5652 15.20389252187256
DUCHIFAT-3              
1 44854U 19089C   22327.83905668  .00004170  00000+0  31469-3 0  9990
2 44854  36.9654 234.6667 0006376  66.8270 345.7178 15.02389642161907
CAS-6 (TIANQIN 1)       
1 44881U 19093C   22327.66964856  .00000542  00000+0  75022-4 0  9993
2 44881  97.8819  44.5115 0015746  32.5123 327.7062 14.81940228158356
RS-44 & BREEZE-KM R/B   
1 44909U 19096E   22327.68214360  .00000003  00000+0 -26858-4 0  9993
2 44909  82.5184 124.5053 0216574 307.5912  50.5695 12.79716723135877
ORBITAL FACTORY 2 (OF-2)
1 45113U 19071C   22327.43278218  .00038326  00000+0  52266-3 0  9998
2 45113  51.6351 351.7937 0011601  36.6684 323.5100 15.57047247158037
HUSKYSAT-1 (HO-107)     
1 45119U 19071J   22327.33945136  .00029728  00000+0  44940-3 0  9999
2 45119  51.6364 354.1343 0011193  32.7995 327.3689 15.54383288157985
BY70-2                  
1 45857U 20042B   22327.69622445  .00007034  00000+0  88841-3 0  9996
2 45857  97.9452  43.1526 0008956 322.4731  37.5843 14.82172887129020
SALSAT                  
1 46495U 20068K   22327.81360683  .00001428  00000+0  10384-3 0  9998
2 46495  97.7460 269.3561 0017988  96.2510 264.0766 15.05336856118150
BY70-3                  
1 46839U 20079N   22327.89179817  .00038474  00000+0  64747-3 0  9990
2 46839  97.1821  38.5946 0005399 114.4974 358.8071 15.51614742114870
RADFXSAT-2 (AO-109)     
1 47311U 21002C   22327.75717110  .00008385  00000+0  30410-3 0  9990
2 47311  60.6832 121.3651 0038139  73.7608 286.7672 15.28464884102783
UVSQ-SAT                
1 47438U 21006AB  22327.68678800  .00005272  00000+0  26326-3 0  9991
2 47438  97.4177  23.4476 0012900  83.4358 276.8344 15.17836338101418
DIY-1 (ARDUIQUBE)       
1 47963U 21022AH  22327.68243043  .00019512  00000+0  90737-3 0  9998
2 47963  97.5178 227.6321 0012998 313.9581  46.0581 15.19928467 91073
XW-3 (CAS-9)            
1 50466U 21131B   22327.87149030  .00000166  00000+0  68746-4 0  9994
2 50466  98.5700  44.9613 0004997  46.5885 313.5717 14.38580429 47837
TEVEL-3                 
1 50988U 22002E   22327.96400755  .00007807  00000+0  39877-3 0  9996
2 50988  97.4645  32.3567 0008263 224.9244 260.1449 15.16936120 47572
TEVEL-8                 
1 50989U 22002F   22327.77513214  .00008109  00000+0  41473-3 0  9992
2 50989  97.4655  32.2059 0008189 223.6602 252.2128 15.16879620 47544
TEVEL-5                 
1 50998U 22002Q   22327.73516925  .00008137  00000+0  40900-3 0  9995
2 50998  97.4640  32.3269 0009674 220.9216 268.8922 15.17475320 47559
TEVEL-6                 
1 50999U 22002R   22327.99710942  .00008171  00000+0  41058-3 0  9992
2 50999  97.4636  32.5818 0009738 218.8659 265.7187 15.17485798 47598
TEVEL-1                 
1 51013U 22002AF  22327.77071793  .00008092  00000+0  41354-3 0  9991
2 51013  97.4635  32.1346 0008041 225.0524 257.8283 15.16905642 47542
TEVEL-7                 
1 51062U 22002CG  22327.71164872  .00008144  00000+0  41654-3 0  9991
2 51062  97.4660  32.1263 0008076 223.8107 254.4882 15.16876623 47536
TEVEL-4                 
1 51063U 22002CH  22327.71295602  .00008098  00000+0  41437-3 0  9995
2 51063  97.4652  32.1218 0008192 223.2849 253.3958 15.16859696 47537
TEVEL-2                 
1 51069U 22002CP  22327.96569736  .00007848  00000+0  40089-3 0  9994
2 51069  97.4640  32.3392 0008198 223.5537 261.3715 15.16931384 47577
GREENCUBE               
1 53106U 22080B   22323.09002148 -.00000003  00000+0  00000+0 0  9995
2 53106  70.1752  32.7128 0008932 231.1104 128.8759  6.42557452  8251
YUZGU 9 (RS3S)          
1 53308U 98067TT  22327.83568517  .00087902  00000+0  81724-3 0  9998
2 53308  51.6368 259.8769 0008578 117.0791 243.1081 15.66620638 19563
YUZGU 7 (RS1S)          
1 53309U 98067TU  22327.81844757  .00092989  00000+0  84432-3 0  9990
2 53309  51.6362 259.7557 0008967 120.8455 239.3425 15.67177815 19512
YUZGU 11 (RS5S)         
1 53310U 98067TV  22327.83447039  .00086287  00000+0  80237-3 0  9999
2 53310  51.6366 259.8679 0008698 119.7703 240.4159 15.66622451 19548
YUZGU 12 (RS6S)         
1 53311U 98067TW  22327.86420011  .00095098  00000+0  84301-3 0  9990
2 53311  51.6363 259.3104 0008656 115.9714 244.2175 15.67761973 19575
TSIOLKOVSKY-RYAZAN 1 (*)
1 53312U 98067TX  22327.81914204  .00087851  00000+0  80892-3 0  9997
2 53312  51.6369 259.7667 0008970 121.1713 239.0164 15.66855587 19504
TSIOLKOVSKY-RYAZAN 2 (*)
1 53313U 98067TY  22327.81584857  .00088561  00000+0  80843-3 0  9990
2 53313  51.6371 259.7454 0008571 122.1202 238.0627 15.67070659 19551
YUZGU 10 (RS4S)         
1 53321U 98067TZ  22327.82824235  .00089729  00000+0  82420-3 0  9997
2 53321  51.6367 259.8267 0008775 118.6936 241.4943 15.66909272 19558
RS29S (SXC3-2110 CYCLO*)
1 53373U 22096D   22327.97097313  .00011101  00000+0  42118-3 0  9997
2 53373  97.4282 228.7356 0002729 107.2975 308.3385 15.27021256 16265
RS32S (SXC3-212 MONITO*)
1 53374U 22096E   22327.89922118  .00010570  00000+0  40024-3 0  9992
2 53374  97.4271 228.6773 0002903 102.4333 319.9700 15.27097992 16253
RS34S (SXC3-218 KUZBAS*)
1 53375U 22096F   22327.98588222  .00009061  00000+0  34747-3 0  9995
2 53375  97.4283 228.7427 0002930 106.8575  17.7183 15.26720647 16268
RS23S (SXC3-21 UTMN)    
1 53376U 22096G   22327.84137106  .00009466  00000+0  36218-3 0  9996
2 53376  97.4281 228.6067 0003078 106.4253 318.8974 15.26785098 16241
RS28S (SXC3-214 MIET-A*)
1 53377U 22096H   22327.84092751  .00008753  00000+0  33561-3 0  9999
2 53377  97.4288 228.6092 0003095 107.3298 320.9295 15.26736174 16246
RS26S (KAI-1)           
1 53378U 22096J   22327.97354228  .00007899  00000+0  30479-3 0  9999
2 53378  97.4281 228.7302 0003225 103.5331 311.8661 15.26559673 16261
RS19S (SXC3-219 ISOI)   
1 53381U 22096M   22327.74681277  .00009130  00000+0  34448-3 0  9995
2 53381  97.4279 228.5874 0006300  74.6958  13.6085 15.27244591 16239
RS21S (CUBESX-HSE-2)    
1 53383U 22096P   22327.87102023  .00009455  00000+0  35614-3 0  9994
2 53383  97.4281 228.7200 0006534  76.1365 350.2164 15.27290696 16254
RS30S (SXC3-217 SIREN)  
1 53384U 22096Q   22327.87301331  .00008275  00000+0  31344-3 0  9993
2 53384  97.4281 228.7147 0006496  74.5324 351.1836 15.27146841 16257
RS20S (GEOSCAN-EDELVEIS)
1 53385U 22096R   22327.84423037  .00011595  00000+0  42698-3 0  9992
2 53385  97.4282 228.7526 0007027  72.7694 352.3999 15.27978689 16280
RS33S (SXC3-215 VIZARD) 
1 53386U 22096S   22327.95667056  .00013661  00000+0  49103-3 0  9990
2 53386  97.4277 228.9334 0007782  72.7779  55.9143 15.28729421 16293
